start=new Date('2022-09-16T00:00:00.000Z').valueOf();
sats=[{"MEAN_ELEMENT_THEORY":"SGP4","RCS_SIZE":"LARGE","CLASSIFICATION_TYPE":"U","MEAN_MOTION_DOT":"0.00001259","RA_OF_ASC_NODE":"17.1041","MEAN_ANOMALY":"284.9570","INCLINATION":"53.0563","OBJECT_TYPE":"PAYLOAD","DECAY_DATE":null,"GP_ID":"212680416","TLE_LINE2":"2 47679  53.0563  17.1041 0001436  75.1578 284.9570 15.06391319 88434","SEMIMAJOR_AXIS":"6925.375","REF_FRAME":"TEME","EPOCH":"2022-09-15T17:58:58.078848","APOAPSIS":"548.235","TLE_LINE1":"1 47679U 21012BM  22258.74928332  .00001259  00000-0  10339-3 0  9992","ARG_OF_PERICENTER":"75.1578","PERIAPSIS":"546.246","TIME_SYSTEM":"UTC","EPHEMERIS_TYPE":"0","COUNTRY_CODE":"US","MEAN_MOTION_DDOT":"0.0000000000000","PERIOD":"95.593","REV_AT_EPOCH":"8843","ECCENTRICITY":"0.00014360","BSTAR":"0.00010339000000","OBJECT_NAME":"STARLINK-2095","OBJECT_ID":"2021-012BM","ELEMENT_SET_NO":"999","NORAD_CAT_ID":"47679","FILE":"3575050","CENTER_NAME":"EARTH","LAUNCH_DATE":"2021-02-16","MEAN_MOTION":"15.06391319","SITE":"AFETR"},{"APOAPSIS":"548.339","EPOCH":"2022-09-15T01:29:48.782688","REF_FRAME":"TEME","SEMIMAJOR_AXIS":"6925.371","PERIAPSIS":"546.132","ARG_OF_PERICENTER":"80.7856","TLE_LINE1":"1 47722U 21017A   22258.06237017  .00000282  00000-0  37860-4 0  9998","MEAN_ANOMALY":"279.3313","CLASSIFICATION_TYPE":"U","RCS_SIZE":"LARGE","MEAN_MOTION_DOT":"0.00000282","RA_OF_ASC_NODE":"145.4085","MEAN_ELEMENT_THEORY":"SGP4","TLE_LINE2":"2 47722  53.0542 145.4085 0001593  80.7856 279.3313 15.06392799 86320","GP_ID":"212644012","DECAY_DATE":null,"INCLINATION":"53.0542","OBJECT_TYPE":"PAYLOAD","OBJECT_ID":"2021-017A","OBJECT_NAME":"STARLINK-2068","CENTER_NAME":"EARTH","LAUNCH_DATE":"2021-03-04","MEAN_MOTION":"15.06392799","SITE":"AFETR","NORAD_CAT_ID":"47722","FILE":"3574601","ELEMENT_SET_NO":"999","COUNTRY_CODE":"US","EPHEMERIS_TYPE":"0","TIME_SYSTEM":"UTC","BSTAR":"0.00003786000000","ECCENTRICITY":"0.00015930","MEAN_MOTION_DDOT":"0.0000000000000","PERIOD":"95.593","REV_AT_EPOCH":"8632"},{"SITE":"AFETR","MEAN_MOTION":"15.06400390","LAUNCH_DATE":"2021-03-04","CENTER_NAME":"EARTH","FILE":"3575050","NORAD_CAT_ID":"47723","ELEMENT_SET_NO":"999","OBJECT_ID":"2021-017B","OBJECT_NAME":"STARLINK-2107","BSTAR":"0.00001827000000","ECCENTRICITY":"0.00013450","PERIOD":"95.592","REV_AT_EPOCH":"8732","MEAN_MOTION_DDOT":"0.0000000000000","COUNTRY_CODE":"US","EPHEMERIS_TYPE":"0","TIME_SYSTEM":"UTC","PERIAPSIS":"546.281","ARG_OF_PERICENTER":"92.9664","TLE_LINE1":"1 47723U 21017B   22258.86634120 -.00000009  00000-0  18270-4 0  9995","APOAPSIS":"548.144","EPOCH":"2022-09-15T20:47:31.879680","REF_FRAME":"TEME","SEMIMAJOR_AXIS":"6925.347","TLE_LINE2":"2 47723  53.0553  76.5756 0001345  92.9664 267.1479 15.06400390 87325","GP_ID":"212681419","DECAY_DATE":null,"OBJECT_TYPE":"PAYLOAD","INCLINATION":"53.0553","MEAN_ANOMALY":"267.1479","RA_OF_ASC_NODE":"76.5756","RCS_SIZE":"LARGE","CLASSIFICATION_TYPE":"U","MEAN_MOTION_DOT":"-0.00000009","MEAN_ELEMENT_THEORY":"SGP4"},{"TLE_LINE1":"1 47724U 21017C   22258.63780157  .00000751  00000-0  69297-4 0  9991","ARG_OF_PERICENTER":"81.2147","PERIAPSIS":"546.325","SEMIMAJOR_AXIS":"6925.346","REF_FRAME":"TEME","EPOCH":"2022-09-15T15:18:26.055648","APOAPSIS":"548.096","INCLINATION":"53.0548","OBJECT_TYPE":"PAYLOAD","DECAY_DATE":null,"GP_ID":"212679672","TLE_LINE2":"2 47724  53.0548  77.5992 0001279  81.2147 278.8987 15.06400960 87254","MEAN_ELEMENT_THEORY":"SGP4","RCS_SIZE":"LARGE","CLASSIFICATION_TYPE":"U","MEAN_MOTION_DOT":"0.00000751","RA_OF_ASC_NODE":"77.5992","MEAN_ANOMALY":"278.8987","ELEMENT_SET_NO":"999","NORAD_CAT_ID":"47724","FILE":"3575050","CENTER_NAME":"EARTH","LAUNCH_DATE":"2021-03-04","MEAN_MOTION":"15.06400960","SITE":"AFETR","OBJECT_NAME":"STARLINK-2116","OBJECT_ID":"2021-017C","MEAN_MOTION_DDOT":"0.0000000000000","PERIOD":"95.592","REV_AT_EPOCH":"8725","ECCENTRICITY":"0.00012790","BSTAR":"0.00006929700000","TIME_SYSTEM":"UTC","EPHEMERIS_TYPE":"0","COUNTRY_CODE":"US"},{"LAUNCH_DATE":"2021-03-04","MEAN_MOTION":"15.06397143","CENTER_NAME":"EARTH","SITE":"AFETR","ELEMENT_SET_NO":"999","NORAD_CAT_ID":"47725","FILE":"3575050","OBJECT_ID":"2021-017D","OBJECT_NAME":"STARLINK-2125","BSTAR":"0.00015583000000","MEAN_MOTION_DDOT":"0.0000000000000","PERIOD":"95.592","REV_AT_EPOCH":"8631","ECCENTRICITY":"0.00015120","EPHEMERIS_TYPE":"0","COUNTRY_CODE":"US","TIME_SYSTEM":"UTC","PERIAPSIS":"546.175","TLE_LINE1":"1 47725U 21017D   22258.80459132  .00002040  00000-0  15583-3 0  9998","ARG_OF_PERICENTER":"70.4836","EPOCH":"2022-09-15T19:18:36.690048","APOAPSIS":"548.269","SEMIMAJOR_AXIS":"6925.357","REF_FRAME":"TEME","GP_ID":"212680421","TLE_LINE2":"2 47725  53.0540 146.8540 0001512  70.4836 289.6316 15.06397143 86311","INCLINATION":"53.0540","OBJECT_TYPE":"PAYLOAD","DECAY_DATE":null,"RCS_SIZE":"LARGE","MEAN_MOTION_DOT":"0.00002040","CLASSIFICATION_TYPE":"U","RA_OF_ASC_NODE":"146.8540","MEAN_ANOMALY":"289.6316","MEAN_ELEMENT_THEORY":"SGP4"},{"MEAN_ELEMENT_THEORY":"SGP4","MEAN_ANOMALY":"279.1782","RA_OF_ASC_NODE":"146.0219","CLASSIFICATION_TYPE":"U","RCS_SIZE":"LARGE","MEAN_MOTION_DOT":"0.00001610","DECAY_DATE":null,"OBJECT_TYPE":"PAYLOAD","INCLINATION":"53.0569","TLE_LINE2":"2 47726  53.0569 146.0219 0001631  80.9391 279.1782 15.06408331 85718","GP_ID":"212658362","REF_FRAME":"TEME","SEMIMAJOR_AXIS":"6925.323","APOAPSIS":"548.318","EPOCH":"2022-09-15T23:43:59.123136","ARG_OF_PERICENTER":"80.9391","TLE_LINE1":"1 47726U 21017E   22258.98887874  .00001610  00000-0  12693-3 0  9997","PERIAPSIS":"546.059","TIME_SYSTEM":"UTC","COUNTRY_CODE":"US","EPHEMERIS_TYPE":"0","ECCENTRICITY":"0.00016310","PERIOD":"95.592","REV_AT_EPOCH":"8571","MEAN_MOTION_DDOT":"0.0000000000000","BSTAR":"0.00012693000000","OBJECT_NAME":"STARLINK-2126","OBJECT_ID":"2021-017E","FILE":"3575012","NORAD_CAT_ID":"47726","ELEMENT_SET_NO":"999","SITE":"AFETR","LAUNCH_DATE":"2021-03-04","CENTER_NAME":"EARTH","MEAN_MOTION":"15.06408331"},{"TLE_LINE2":"2 47727  53.0559  67.1442 0001466  67.7862 292.3282 15.06394192 87455","GP_ID":"212680920","DECAY_DATE":null,"OBJECT_TYPE":"PAYLOAD","INCLINATION":"53.0559","MEAN_ANOMALY":"292.3282","RA_OF_ASC_NODE":"67.1442","RCS_SIZE":"LARGE","CLASSIFICATION_TYPE":"U","MEAN_MOTION_DOT":"0.00000602","MEAN_ELEMENT_THEORY":"SGP4","PERIAPSIS":"546.216","ARG_OF_PERICENTER":"67.7862","TLE_LINE1":"1 47727U 21017F   22258.74099381  .00000602  00000-0  59287-4 0  9991","APOAPSIS":"548.247","EPOCH":"2022-09-15T17:47:01.865184","REF_FRAME":"TEME","SEMIMAJOR_AXIS":"6925.366","BSTAR":"0.00005928700000","ECCENTRICITY":"0.00014660","REV_AT_EPOCH":"8745","PERIOD":"95.593","MEAN_MOTION_DDOT":"0.0000000000000","COUNTRY_CODE":"US","EPHEMERIS_TYPE":"0","TIME_SYSTEM":"UTC","SITE":"AFETR","LAUNCH_DATE":"2021-03-04","MEAN_MOTION":"15.06394192","CENTER_NAME":"EARTH","FILE":"3575050","NORAD_CAT_ID":"47727","ELEMENT_SET_NO":"999","OBJECT_ID":"2021-017F","OBJECT_NAME":"STARLINK-2129"},{"BSTAR":"0.00017911000000","MEAN_MOTION_DDOT":"0.0000000000000","PERIOD":"95.592","REV_AT_EPOCH":"8626","ECCENTRICITY":"0.00013150","EPHEMERIS_TYPE":"0","COUNTRY_CODE":"US","TIME_SYSTEM":"UTC","CENTER_NAME":"EARTH","LAUNCH_DATE":"2021-03-04","MEAN_MOTION":"15.06401268","SITE":"AFETR","ELEMENT_SET_NO":"999","NORAD_CAT_ID":"47728","FILE":"3574601","OBJECT_ID":"2021-017G","OBJECT_NAME":"STARLINK-2131","GP_ID":"212645012","TLE_LINE2":"2 47728  53.0534 150.0053 0001315  87.4659 272.6480 15.06401268 86267","INCLINATION":"53.0534","OBJECT_TYPE":"PAYLOAD","DECAY_DATE":null,"CLASSIFICATION_TYPE":"U","RCS_SIZE":"LARGE","MEAN_MOTION_DOT":"0.00002387","RA_OF_ASC_NODE":"150.0053","MEAN_ANOMALY":"272.6480","MEAN_ELEMENT_THEORY":"SGP4","PERIAPSIS":"546.299","TLE_LINE1":"1 47728U 21017G   22258.10057800  .00002387  00000-0  17911-3 0  9991","ARG_OF_PERICENTER":"87.4659","EPOCH":"2022-09-15T02:24:49.939200","APOAPSIS":"548.120","SEMIMAJOR_AXIS":"6925.345","REF_FRAME":"TEME"},{"PERIAPSIS":"546.238","TLE_LINE1":"1 47729U 21017H   22258.79310580  .00001009  00000-0  86613-4 0  9990","ARG_OF_PERICENTER":"92.0067","EPOCH":"2022-09-15T19:02:04.341120","APOAPSIS":"548.220","SEMIMAJOR_AXIS":"6925.364","REF_FRAME":"TEME","GP_ID":"212679922","TLE_LINE2":"2 47729  53.0550  92.1059 0001431  92.0067 268.1085 15.06395100 87070","INCLINATION":"53.0550","OBJECT_TYPE":"PAYLOAD","DECAY_DATE":null,"MEAN_MOTION_DOT":"0.00001009","RCS_SIZE":"LARGE","CLASSIFICATION_TYPE":"U","RA_OF_ASC_NODE":"92.1059","MEAN_ANOMALY":"268.1085","MEAN_ELEMENT_THEORY":"SGP4","CENTER_NAME":"EARTH","LAUNCH_DATE":"2021-03-04","MEAN_MOTION":"15.06395100","SITE":"AFETR","ELEMENT_SET_NO":"999","NORAD_CAT_ID":"47729","FILE":"3575050","OBJECT_ID":"2021-017H","OBJECT_NAME":"STARLINK-2132","BSTAR":"0.00008661300000","MEAN_MOTION_DDOT":"0.0000000000000","PERIOD":"95.592","REV_AT_EPOCH":"8707","ECCENTRICITY":"0.00014310","EPHEMERIS_TYPE":"0","COUNTRY_CODE":"US","TIME_SYSTEM":"UTC"},{"NORAD_CAT_ID":"47730","FILE":"3575050","ELEMENT_SET_NO":"999","MEAN_MOTION":"15.06386118","LAUNCH_DATE":"2021-03-04","CENTER_NAME":"EARTH","SITE":"AFETR","OBJECT_NAME":"STARLINK-2140","OBJECT_ID":"2021-017J","ECCENTRICITY":"0.00014340","MEAN_MOTION_DDOT":"0.0000000000000","PERIOD":"95.593","REV_AT_EPOCH":"8610","BSTAR":"0.00044188000000","TIME_SYSTEM":"UTC","COUNTRY_CODE":"US","EPHEMERIS_TYPE":"0","ARG_OF_PERICENTER":"74.4446","TLE_LINE1":"1 47730U 21017J   22258.78662939  .00006304  00000-0  44188-3 0  9992","PERIAPSIS":"546.263","REF_FRAME":"TEME","SEMIMAJOR_AXIS":"6925.391","APOAPSIS":"548.249","EPOCH":"2022-09-15T18:52:44.779296","DECAY_DATE":null,"INCLINATION":"53.0530","OBJECT_TYPE":"PAYLOAD","TLE_LINE2":"2 47730  53.0530 161.9319 0001434  74.4446 285.6701 15.06386118 86103","GP_ID":"212681173","MEAN_ELEMENT_THEORY":"SGP4","MEAN_ANOMALY":"285.6701","MEAN_MOTION_DOT":"0.00006304","RCS_SIZE":"LARGE","CLASSIFICATION_TYPE":"U","RA_OF_ASC_NODE":"161.9319"}];
